0 INSAT 3D
1 39216U 13038B   13281.85015715 -.00000168  00000-0  00000+0 0   607
2 39216 000.1290 234.8437 0002681 298.5494 232.3884 01.00271094   839
0 INSAT 3D
1 39216U 13038B   13281.95293873 -.00000168  00000-0  00000+0 0   612
2 39216 000.1294 234.4846 0002661 291.1138 277.2926 01.00271274   830
0 INSAT 3D
1 39216U 13038B   13283.35068972  .00000000  00000-0  10000-3 0   639
2 39216 000.1252 229.8323 0004908 262.1278 095.4933 01.00267362   843
0 INSAT 3D
1 39216U 13038B   13283.65894028 -.00000174  00000-0  00000+0 0   628
2 39216 000.1254 234.2307 0002586 289.5426 174.9519 01.00270982   840
0 INSAT 3D
1 39216U 13038B   13285.97056215 -.00000180  00000-0  00000+0 0   631
2 39216 000.1216 233.8464 0002661 288.0720 291.2622 01.00270734   878
0 INSAT 3D
1 39216U 13038B   13286.78427331 -.00000181  00000-0  00000+0 0   644
2 39216 000.1199 233.5624 0002911 282.5866 230.7694 01.00270649   884
0 INSAT 3D
1 39216U 13038B   13287.84237073 -.00000181  00000-0  00000+0 0   655
2 39216 000.1182 233.3509 0003217 277.8472 257.6748 01.00270462   898
0 INSAT 3D
1 39216U 13038B   13288.85060441 -.00000180  00000-0  00000+0 0   660
2 39216 000.1162 232.9884 0003276 278.2466 261.5923 01.00270384   904
0 INSAT 3D
1 39216U 13038B   13289.88212397 -.00000179  00000-0  00000+0 0   672
2 39216 000.1149 232.1727 0003192 279.4820 273.5290 01.00270216   916
0 INSAT 3D
1 39216U 13038B   13290.32444705  .00000000  00000-0  10000-3 0   715
2 39216 000.1126 226.3437 0002138 311.1350 047.3694 01.00266027   915
0 INSAT 3D
1 39216U 13038B   13290.98847796 -.00000176  00000-0  00000+0 0   680
2 39216 000.1126 231.5297 0003269 280.9804 312.0499 01.00270179   929
0 INSAT 3D
1 39216U 13038B   13292.84424307 -.00000173  00000-0  00000+0 0   694
2 39216 000.1073 225.2319 0003153 291.9137 257.3348 01.00272420   945
0 INSAT 3D
1 39216U 13038B   13293.85335947 -.00000171  00000-0  00000+0 0   707
2 39216 000.1055 224.8876 0003174 291.9666 261.9052 01.00272357   951
0 INSAT 3D
1 39216U 13038B   13294.87316832 -.00000170  00000-0  00000+0 0   712
2 39216 000.1041 224.6101 0003176 292.2411 270.0458 01.00272231   962
